{"type": "FeatureCollection", "features": [{"type": "Feature", "geometry": {"type": "Polygon", "coordinates": [[[7.8, 7.75], [8.15, 7.75], [8.15, 8.1], [7.8, 8.1], [7.8, 7.75]]]}, "properties": {"kind": "lga", "name": "Agatu"}}, {"type": "Feature", "geometry": {"type": "Polygon", "coordinates": [[[8.6, 7.7], [9.02, 7.7], [9.02, 8.1], [8.6, 8.1], [8.6, 7.7]]]}, "properties": {"kind": "lga", "name": "Guma"}}, {"type": "Feature", "geometry": {"type": "Polygon", "coordinates": [[[8.4, 7.62], [8.6, 7.62], [8.6, 7.85], [8.4, 7.85], [8.4, 7.62]]]}, "properties": {"kind": "lga", "name": "Makurdi"}}, {"type": "Feature", "geometry": {"type": "Polygon", "coordinates": [[[9.02, 7.45], [9.35, 7.45], [9.35, 7.85], [9.02, 7.85], [9.02, 7.45]]]}, "properties": {"kind": "lga", "name": "Logo"}}, {"type": "Feature", "geometry": {"type": "Polygon", "coordinates": [[[8.05, 7.45], [8.4, 7.45], [8.4, 7.75], [8.05, 7.75], [8.05, 7.45]]]}, "properties": {"kind": "lga", "name": "Gwer West"}}, {"type": "Feature", "geometry": {"type": "Point", "coordinates": [8.83, 7.905]}, "properties": {"kind": "community", "name": "Yelwata", "lga": "Guma"}}, {"type": "Feature", "geometry": {"type": "Polygon", "coordinates": [[[8.86179, 7.90165], [8.86736, 7.89986], [8.87148, 7.89585], [8.87173, 7.89031], [8.8696, 7.88584], [8.86665, 7.88197], [8.86179, 7.87946], [8.85646, 7.88117], [8.8537, 7.88568], [8.85116, 7.89031], [8.85389, 7.89482], [8.85823, 7.89641], [8.86179, 7.90165]]]}, "properties": {"kind": "farmland", "name": "Yelwata farm 1", "lga": "Guma", "community": "Yelwata", "crop": "yam"}}, {"type": "Feature", "geometry": {"type": "Polygon", "coordinates": [[[8.85029, 7.93828], [8.85469, 7.93661], [8.85788, 7.93341], [8.85722, 7.92907], [8.85643, 7.92556], [8.85527, 7.92054], [8.85029, 7.91942], [8.84567, 7.92113], [8.84162, 7.92411], [8.84218, 7.92907], [8.84475, 7.93224], [8.84658, 7.93545], [8.85029, 7.93828]]]}, "properties": {"kind": "farmland", "name": "Yelwata farm 2", "lga": "Guma", "community": "Yelwata", "crop": "soybean"}}, {"type": "Feature", "geometry": {"type": "Polygon", "coordinates": [[[8.82569, 7.89383], [8.82899, 7.89315], [8.83039, 7.89017], [8.83269, 7.88748], [8.83054, 7.8847], [8.82862, 7.88244], [8.82569, 7.88273], [8.82213, 7.88137], [8.82037, 7.88444], [8.81863, 7.88748], [8.82069, 7.89034], [8.82225, 7.89337], [8.82569, 7.89383]]]}, "properties": {"kind": "farmland", "name": "Yelwata farm 3", "lga": "Guma", "community": "Yelwata", "crop": "sorghum"}}, {"type": "Feature", "geometry": {"type": "Point", "coordinates": [8.7, 7.815]}, "properties": {"kind": "community", "name": "Daudu", "lga": "Guma"}}, {"type": "Feature", "geometry": {"type": "Polygon", "coordinates": [[[8.68518, 7.83966], [8.6896, 7.83734], [8.69434, 7.835], [8.6938, 7.82976], [8.6937, 7.82489], [8.68962, 7.82214], [8.68518, 7.82018], [8.68024, 7.82128], [8.6761, 7.82456], [8.67652, 7.82976], [8.67715, 7.83435], [8.68045, 7.83788], [8.68518, 7.83966]]]}, "properties": {"kind": "farmland", "name": "Daudu farm 1", "lga": "Guma", "community": "Daudu", "crop": "maize"}}, {"type": "Feature", "geometry": {"type": "Polygon", "coordinates": [[[8.70433, 7.80021], [8.70782, 7.79846], [8.70991, 7.79566], [8.71081, 7.79247], [8.71122, 7.78854], [8.7084, 7.78549], [8.70433, 7.78581], [8.70095, 7.78667], [8.69817, 7.78895], [8.69837, 7.79247], [8.69781, 7.79621], [8.70104, 7.79812], [8.70433, 7.80021]]]}, "properties": {"kind": "farmland", "name": "Daudu farm 2", "lga": "Guma", "community": "Daudu", "crop": "maize"}}, {"type": "Feature", "geometry": {"type": "Polygon", "coordinates": [[[8.68013, 7.82943], [8.68257, 7.82625], [8.68473, 7.8247], [8.68772, 7.82207], [8.68692, 7.81819], [8.68381, 7.81577], [8.68013, 7.81441], [8.67715, 7.81695], [8.6754, 7.81936], [8.67314, 7.82207], [8.67468, 7.82519], [8.67652, 7.82827], [8.68013, 7.82943]]]}, "properties": {"kind": "farmland", "name": "Daudu farm 3", "lga": "Guma", "community": "Daudu", "crop": "maize"}}, {"type": "Feature", "geometry": {"type": "Polygon", "coordinates": [[[8.67657, 7.83665], [8.68164, 7.83255], [8.68817, 7.83048], [8.68553, 7.82385], [8.6871, 7.81782], [8.68291, 7.81297], [8.67657, 7.81274], [8.67113, 7.81451], [8.66475, 7.81708], [8.66291, 7.82385], [8.66532, 7.83028], [8.67106, 7.8333], [8.67657, 7.83665]]]}, "properties": {"kind": "farmland", "name": "Daudu farm 4", "lga": "Guma", "community": "Daudu", "crop": "yam"}}, {"type": "Feature", "geometry": {"type": "Polygon", "coordinates": [[[8.6728, 7.80139], [8.67721, 7.80262], [8.67819, 7.79813], [8.68185, 7.79504], [8.67802, 7.79205], [8.67647, 7.78874], [8.6728, 7.78742], [8.66842, 7.78753], [8.66593, 7.79111], [8.66638, 7.79504], [8.66748, 7.79808], [8.66987, 7.80007], [8.6728, 7.80139]]]}, "properties": {"kind": "farmland", "name": "Daudu farm 5", "lga": "Guma", "community": "Daudu", "crop": "soybean"}}, {"type": "Feature", "geometry": {"type": "Point", "coordinates": [8.86, 7.955]}, "properties": {"kind": "community", "name": "Gbajimba", "lga": "Guma"}}, {"type": "Feature", "geometry": {"type": "Polygon", "coordinates": [[[8.83642, 7.94734], [8.83958, 7.94729], [8.84238, 7.94527], [8.84383, 7.94187], [8.84166, 7.93887], [8.83979, 7.93609], [8.83642, 7.93692], [8.83379, 7.93736], [8.83093, 7.93873], [8.82899, 7.94187], [8.83019, 7.94543], [8.83337, 7.94709], [8.83642, 7.94734]]]}, "properties": {"kind": "farmland", "name": "Gbajimba farm 1", "lga": "Guma", "community": "Gbajimba", "crop": "yam"}}, {"type": "Feature", "geometry": {"type": "Polygon", "coordinates": [[[8.86739, 7.94881], [8.87049, 7.94743], [8.87256, 7.94507], [8.87302, 7.94211], [8.87166, 7.93967], [8.87081, 7.93625], [8.86739, 7.93657], [8.86375, 7.93587], [8.86252, 7.93932], [8.86268, 7.94211], [8.8614, 7.94553], [8.86421, 7.94758], [8.86739, 7.94881]]]}, "properties": {"kind": "farmland", "name": "Gbajimba farm 2", "lga": "Guma", "community": "Gbajimba", "crop": "sorghum"}}, {"type": "Feature", "geometry": {"type": "Polygon", "coordinates": [[[8.85609, 7.97465], [8.86011, 7.97266], [8.86467, 7.97066], [8.86432, 7.96576], [8.86311, 7.96175], [8.86045, 7.95829], [8.85609, 7.95891], [8.85179, 7.95838], [8.84998, 7.96226], [8.84736, 7.96576], [8.8491, 7.96976], [8.85251, 7.97191], [8.85609, 7.97465]]]}, "properties": {"kind": "farmland", "name": "Gbajimba farm 3", "lga": "Guma", "community": "Gbajimba", "crop": "sesame"}}, {"type": "Feature", "geometry": {"type": "Polygon", "coordinates": [[[8.8689, 7.98147], [8.87138, 7.97813], [8.87452, 7.9771], [8.8763, 7.97389], [8.87428, 7.97081], [8.87247, 7.96776], [8.8689, 7.96855], [8.8654, 7.96788], [8.86239, 7.97016], [8.86369, 7.97389], [8.86332, 7.97708], [8.86528, 7.98009], [8.8689, 7.98147]]]}, "properties": {"kind": "farmland", "name": "Gbajimba farm 4", "lga": "Guma", "community": "Gbajimba", "crop": "soybean"}}, {"type": "Feature", "geometry": {"type": "Point", "coordinates": [8.96, 7.76]}, "properties": {"kind": "community", "name": "Abinsi", "lga": "Guma"}}, {"type": "Feature", "geometry": {"type": "Polygon", "coordinates": [[[8.98736, 7.78442], [8.99103, 7.7834], [8.99263, 7.78012], [8.99429, 7.77711], [8.99349, 7.7736], [8.99075, 7.77129], [8.98736, 7.76953], [8.98301, 7.76964], [8.981, 7.77347], [8.97982, 7.77711], [8.98129, 7.78058], [8.98356, 7.78362], [8.98736, 7.78442]]]}, "properties": {"kind": "farmland", "name": "Abinsi farm 1", "lga": "Guma", "community": "Abinsi", "crop": "yam"}}, {"type": "Feature", "geometry": {"type": "Polygon", "coordinates": [[[8.95587, 7.74182], [8.95883, 7.74143], [8.96039, 7.73893], [8.96139, 7.73635], [8.96169, 7.73302], [8.95903, 7.73093], [8.95587, 7.72938], [8.95188, 7.72949], [8.94891, 7.73237], [8.95006, 7.73635], [8.95129, 7.73897], [8.95185, 7.74324], [8.95587, 7.74182]]]}, "properties": {"kind": "farmland", "name": "Abinsi farm 2", "lga": "Guma", "community": "Abinsi", "crop": "rice"}}, {"type": "Feature", "geometry": {"type": "Polygon", "coordinates": [[[8.95034, 7.74363], [8.95512, 7.74489], [8.95804, 7.74109], [8.95928, 7.73668], [8.95679, 7.73299], [8.95423, 7.73], [8.95034, 7.72908], [8.9459, 7.72906], [8.9443, 7.73323], [8.94268, 7.73668], [8.94119, 7.74192], [8.94671, 7.74292], [8.95034, 7.74363]]]}, "properties": {"kind": "farmland", "name": "Abinsi farm 3", "lga": "Guma", "community": "Abinsi", "crop": "sesame"}}, {"type": "Feature", "geometry": {"type": "Point", "coordinates": [7.905, 7.935]}, "properties": {"kind": "community", "name": "Obagaji", "lga": "Agatu"}}, {"type": "Feature", "geometry": {"type": "Polygon", "coordinates": [[[7.87579, 7.94328], [7.87894, 7.94207], [7.88064, 7.93943], [7.8831, 7.93666], [7.88068, 7.93386], [7.87865, 7.93175], [7.87579, 7.93116], [7.87331, 7.93241], [7.87058, 7.93368], [7.86828, 7.93666], [7.86961, 7.94019], [7.87277, 7.94182], [7.87579, 7.94328]]]}, "properties": {"kind": "farmland", "name": "Obagaji farm 1", "lga": "Agatu", "community": "Obagaji", "crop": "yam"}}, {"type": "Feature", "geometry": {"type": "Polygon", "coordinates": [[[7.91095, 7.9563], [7.91461, 7.95693], [7.91858, 7.95501], [7.91931, 7.95064], [7.91656, 7.94743], [7.91443, 7.94466], [7.91095, 7.94316], [7.90701, 7.9439], [7.90617, 7.94791], [7.90416, 7.95064], [7.90446, 7.95435], [7.90722, 7.95703], [7.91095, 7.9563]]]}, "properties": {"kind": "farmland", "name": "Obagaji farm 2", "lga": "Agatu", "community": "Obagaji", "crop": "maize"}}, {"type": "Feature", "geometry": {"type": "Polygon", "coordinates": [[[7.90065, 7.97887], [7.9059, 7.97664], [7.91073, 7.97339], [7.90978, 7.96763], [7.91083, 7.96181], [7.90514, 7.95993], [7.90065, 7.95697], [7.89597, 7.9596], [7.89423, 7.96396], [7.89008, 7.96763], [7.89315, 7.97192], [7.89475, 7.97775], [7.90065, 7.97887]]]}, "properties": {"kind": "farmland", "name": "Obagaji farm 3", "lga": "Agatu", "community": "Obagaji", "crop": "sorghum"}}, {"type": "Feature", "geometry": {"type": "Point", "coordinates": [8.01, 7.86]}, "properties": {"kind": "community", "name": "Ochekwu", "lga": "Agatu"}}, {"type": "Feature", "geometry": {"type": "Polygon", "coordinates": [[[8.03056, 7.86063], [8.03604, 7.86322], [8.03718, 7.8576], [8.03759, 7.85381], [8.04021, 7.84829], [8.03431, 7.84738], [8.03056, 7.84656], [8.02708, 7.84785], [8.0227, 7.84932], [8.02116, 7.85381], [8.021, 7.85928], [8.0265, 7.86077], [8.03056, 7.86063]]]}, "properties": {"kind": "farmland", "name": "Ochekwu farm 1", "lga": "Agatu", "community": "Ochekwu", "crop": "maize"}}, {"type": "Feature", "geometry": {"type": "Polygon", "coordinates": [[[8.0006, 7.84917], [8.00426, 7.84886], [8.0063, 7.84584], [8.00683, 7.84258], [8.00733, 7.83872], [8.00471, 7.83553], [8.0006, 7.83343], [7.99645, 7.83546], [7.99433, 7.83899], [7.99389, 7.84258], [7.99513, 7.8457], [7.99767, 7.8476], [8.0006, 7.84917]]]}, "properties": {"kind": "farmland", "name": "Ochekwu farm 2", "lga": "Agatu", "community": "Ochekwu", "crop": "rice"}}, {"type": "Feature", "geometry": {"type": "Polygon", "coordinates": [[[8.0045, 7.84877], [8.01059, 7.84985], [8.01245, 7.84394], [8.01419, 7.83939], [8.0122, 7.83499], [8.01126, 7.82779], [8.0045, 7.82623], [7.99787, 7.82802], [7.99533, 7.83415], [7.99291, 7.83939], [7.99338, 7.84575], [8.0, 7.84711], [8.0045, 7.84877]]]}, "properties": {"kind": "farmland", "name": "Ochekwu farm 3", "lga": "Agatu", "community": "Ochekwu", "crop": "sorghum"}}, {"type": "Feature", "geometry": {"type": "Point", "coordinates": [9.14, 7.69]}, "properties": {"kind": "community", "name": "Ugba", "lga": "Logo"}}, {"type": "Feature", "geometry": {"type": "Polygon", "coordinates": [[[9.12772, 7.68291], [9.13045, 7.68294], [9.13163, 7.68049], [9.1338, 7.67826], [9.13327, 7.67509], [9.13071, 7.67313], [9.12772, 7.67325], [9.12463, 7.67295], [9.12288, 7.67549], [9.12289, 7.67826], [9.1222, 7.68142], [9.12517, 7.68264], [9.12772, 7.68291]]]}, "properties": {"kind": "farmland", "name": "Ugba farm 1", "lga": "Logo", "community": "Ugba", "crop": "maize"}}, {"type": "Feature", "geometry": {"type": "Polygon", "coordinates": [[[9.12117, 7.68325], [9.12544, 7.68129], [9.1272, 7.67741], [9.1299, 7.67396], [9.12709, 7.67057], [9.12606, 7.66555], [9.12117, 7.66403], [9.11643, 7.66583], [9.11289, 7.66922], [9.11214, 7.67396], [9.11302, 7.67862], [9.11678, 7.68149], [9.12117, 7.68325]]]}, "properties": {"kind": "farmland", "name": "Ugba farm 2", "lga": "Logo", "community": "Ugba", "crop": "yam"}}, {"type": "Feature", "geometry": {"type": "Polygon", "coordinates": [[[9.16361, 7.69001], [9.16636, 7.68727], [9.17068, 7.68659], [9.17054, 7.68255], [9.17052, 7.6786], [9.16735, 7.67615], [9.16361, 7.67643], [9.16096, 7.678], [9.15802, 7.67935], [9.15667, 7.68255], [9.15636, 7.6867], [9.15969, 7.68929], [9.16361, 7.69001]]]}, "properties": {"kind": "farmland", "name": "Ugba farm 3", "lga": "Logo", "community": "Ugba", "crop": "sesame"}}, {"type": "Feature", "geometry": {"type": "Point", "coordinates": [9.23, 7.6]}, "properties": {"kind": "community", "name": "Anyiin", "lga": "Logo"}}, {"type": "Feature", "geometry": {"type": "Polygon", "coordinates": [[[9.22706, 7.61873], [9.23012, 7.61837], [9.23176, 7.61581], [9.23374, 7.61311], [9.23265, 7.60991], [9.2296, 7.60875], [9.22706, 7.60603], [9.22436, 7.60848], [9.22241, 7.61046], [9.22213, 7.61311], [9.22215, 7.61592], [9.22337, 7.61944], [9.22706, 7.61873]]]}, "properties": {"kind": "farmland", "name": "Anyiin farm 1", "lga": "Logo", "community": "Anyiin", "crop": "sesame"}}, {"type": "Feature", "geometry": {"type": "Polygon", "coordinates": [[[9.23156, 7.63388], [9.23632, 7.63417], [9.24011, 7.6309], [9.24174, 7.626], [9.24044, 7.62092], [9.23503, 7.62005], [9.23156, 7.61775], [9.22807, 7.62002], [9.22427, 7.62183], [9.22465, 7.626], [9.22306, 7.63087], [9.2274, 7.63315], [9.23156, 7.63388]]]}, "properties": {"kind": "farmland", "name": "Anyiin farm 2", "lga": "Logo", "community": "Anyiin", "crop": "sesame"}}, {"type": "Feature", "geometry": {"type": "Polygon", "coordinates": [[[9.22142, 7.60027], [9.22468, 7.59886], [9.22686, 7.59638], [9.22938, 7.59327], [9.22678, 7.59021], [9.22609, 7.58526], [9.22142, 7.58584], [9.21696, 7.58561], [9.21417, 7.58911], [9.21431, 7.59327], [9.21451, 7.59722], [9.21738, 7.60022], [9.22142, 7.60027]]]}, "properties": {"kind": "farmland", "name": "Anyiin farm 3", "lga": "Logo", "community": "Anyiin", "crop": "rice"}}, {"type": "Feature", "geometry": {"type": "Point", "coordinates": [8.205, 7.585]}, "properties": {"kind": "community", "name": "Naka", "lga": "Gwer West"}}, {"type": "Feature", "geometry": {"type": "Polygon", "coordinates": [[[8.19748, 7.60645], [8.20212, 7.60463], [8.2047, 7.60079], [8.20636, 7.59666], [8.20336, 7.59329], [8.20232, 7.58835], [8.19748, 7.58991], [8.19323, 7.58936], [8.19078, 7.59282], [8.18791, 7.59666], [8.19109, 7.60032], [8.19359, 7.60335], [8.19748, 7.60645]]]}, "properties": {"kind": "farmland", "name": "Naka farm 1", "lga": "Gwer West", "community": "Naka", "crop": "soybean"}}, {"type": "Feature", "geometry": {"type": "Polygon", "coordinates": [[[8.1978, 7.57929], [8.20331, 7.57695], [8.20651, 7.57247], [8.20723, 7.56748], [8.20721, 7.5621], [8.20431, 7.55629], [8.1978, 7.55427], [8.19157, 7.55679], [8.18892, 7.5624], [8.18495, 7.56748], [8.1878, 7.5732], [8.19304, 7.57565], [8.1978, 7.57929]]]}, "properties": {"kind": "farmland", "name": "Naka farm 2", "lga": "Gwer West", "community": "Naka", "crop": "maize"}}, {"type": "Feature", "geometry": {"type": "Polygon", "coordinates": [[[8.17745, 7.58898], [8.18088, 7.58969], [8.18211, 7.58647], [8.18432, 7.5838], [8.18242, 7.58096], [8.17989, 7.57962], [8.17745, 7.5776], [8.17489, 7.5794], [8.17118, 7.58021], [8.17139, 7.5838], [8.17329, 7.58619], [8.1748, 7.58835], [8.17745, 7.58898]]]}, "properties": {"kind": "farmland", "name": "Naka farm 3", "lga": "Gwer West", "community": "Naka", "crop": "maize"}}, {"type": "Feature", "geometry": {"type": "Polygon", "coordinates": [[[8.18938, 7.57897], [8.19355, 7.5782], [8.19545, 7.57451], [8.19924, 7.57103], [8.19692, 7.56672], [8.19412, 7.56289], [8.18938, 7.56183], [8.18429, 7.5623], [8.18085, 7.56615], [8.18058, 7.57103], [8.1821, 7.5752], [8.1847, 7.57907], [8.18938, 7.57897]]]}, "properties": {"kind": "farmland", "name": "Naka farm 4", "lga": "Gwer West", "community": "Naka", "crop": "yam"}}, {"type": "Feature", "geometry": {"type": "Point", "coordinates": [8.54, 7.76]}, "properties": {"kind": "community", "name": "Makurdi North Bank", "lga": "Makurdi"}}, {"type": "Feature", "geometry": {"type": "Polygon", "coordinates": [[[8.52898, 7.76589], [8.53303, 7.76517], [8.53713, 7.76289], [8.53741, 7.75823], [8.53763, 7.75329], [8.53333, 7.75078], [8.52898, 7.74787], [8.52493, 7.75128], [8.52308, 7.75486], [8.52139, 7.75823], [8.52278, 7.76178], [8.52384, 7.76707], [8.52898, 7.76589]]]}, "properties": {"kind": "farmland", "name": "Makurdi North Bank farm 1", "lga": "Makurdi", "community": "Makurdi North Bank", "crop": "rice"}}, {"type": "Feature", "geometry": {"type": "Polygon", "coordinates": [[[8.56722, 7.75624], [8.5727, 7.75532], [8.57561, 7.75071], [8.57785, 7.74591], [8.57482, 7.74156], [8.57307, 7.73587], [8.56722, 7.73325], [8.56291, 7.73852], [8.5562, 7.73961], [8.55464, 7.74591], [8.55954, 7.75031], [8.56161, 7.75554], [8.56722, 7.75624]]]}, "properties": {"kind": "farmland", "name": "Makurdi North Bank farm 2", "lga": "Makurdi", "community": "Makurdi North Bank", "crop": "sesame"}}, {"type": "Feature", "geometry": {"type": "Polygon", "coordinates": [[[8.56357, 7.76143], [8.56862, 7.75951], [8.57045, 7.75478], [8.57229, 7.75085], [8.57174, 7.74617], [8.56773, 7.74371], [8.56357, 7.74001], [8.5575, 7.74042], [8.55305, 7.74483], [8.55179, 7.75085], [8.55441, 7.75608], [8.55904, 7.75862], [8.56357, 7.76143]]]}, "properties": {"kind": "farmland", "name": "Makurdi North Bank farm 3", "lga": "Makurdi", "community": "Makurdi North Bank", "crop": "rice"}}, {"type": "Feature", "geometry": {"type": "Polygon", "coordinates": [[[8.56102, 7.75809], [8.56467, 7.75682], [8.56872, 7.75495], [8.56785, 7.75055], [8.56815, 7.74646], [8.56491, 7.74387], [8.56102, 7.74096], [8.55693, 7.74353], [8.55428, 7.74669], [8.55265, 7.75055], [8.553, 7.75513], [8.55726, 7.757], [8.56102, 7.75809]]]}, "properties": {"kind": "farmland", "name": "Makurdi North Bank farm 4", "lga": "Makurdi", "community": "Makurdi North Bank", "crop": "soybean"}}, {"type": "Feature", "geometry": {"type": "Polygon", "coordinates": [[[8.04, 8.07106], [8.0523, 8.07441], [8.05873, 8.06354], [8.0744, 8.05911], [8.07624, 8.045], [8.0738, 8.03114], [8.06683, 8.01843], [8.0516, 8.01727], [8.04, 8.01201], [8.0297, 8.02038], [8.01613, 8.02136], [8.00861, 8.03213], [8.00925, 8.045], [8.0117, 8.0566], [8.01809, 8.06669], [8.02913, 8.07097], [8.04, 8.07106]]]}, "properties": {"kind": "grazing_reserve", "name": "Agatu North Grazing Reserve"}}, {"type": "Feature", "geometry": {"type": "Polygon", "coordinates": [[[8.98, 8.10634], [8.99703, 8.1007], [9.0025, 8.08228], [9.01081, 8.07263], [9.02604, 8.06], [9.02124, 8.04308], [9.007, 8.03326], [8.99364, 8.02739], [8.98, 8.02973], [8.96476, 8.02358], [8.95698, 8.0372], [8.94569, 8.04593], [8.94753, 8.06], [8.94493, 8.07438], [8.95292, 8.08681], [8.96543, 8.09481], [8.98, 8.10634]]]}, "properties": {"kind": "grazing_reserve", "name": "Guma East Grazing Reserve"}}, {"type": "Feature", "geometry": {"type": "Polygon", "coordinates": [[[9.15, 7.53325], [9.15998, 7.5239], [9.17454, 7.52433], [9.17698, 7.51108], [9.18021, 7.5], [9.18163, 7.48701], [9.169, 7.48116], [9.16396, 7.46659], [9.15, 7.47241], [9.13813, 7.47159], [9.12884, 7.47902], [9.12746, 7.49074], [9.1199, 7.5], [9.11654, 7.51374], [9.12692, 7.52288], [9.14078, 7.52207], [9.15, 7.53325]]]}, "properties": {"kind": "grazing_reserve", "name": "Logo South Grazing Reserve"}}, {"type": "Feature", "geometry": {"type": "Point", "coordinates": [8.76, 7.845]}, "properties": {"kind": "water_point", "name": "Daudu Pond"}}, {"type": "Feature", "geometry": {"type": "Point", "coordinates": [8.05, 7.89]}, "properties": {"kind": "water_point", "name": "Ochekwu Stream"}}, {"type": "Feature", "geometry": {"type": "Point", "coordinates": [9.08, 7.64]}, "properties": {"kind": "water_point", "name": "Ugba Dam"}}, {"type": "Feature", "geometry": {"type": "Point", "coordinates": [8.16, 7.61]}, "properties": {"kind": "water_point", "name": "Naka Borehole"}}, {"type": "Feature", "geometry": {"type": "LineString", "coordinates": [[9.35, 7.8], [9.05, 7.76], [8.8, 7.74], [8.54, 7.735], [8.3, 7.77], [8.05, 7.8], [7.8, 7.84]]}, "properties": {"kind": "river", "name": "River Benue"}}, {"type": "Feature", "geometry": {"type": "LineString", "coordinates": [[8.04, 8.045], [8.035, 7.98], [8.05, 7.9]]}, "properties": {"kind": "stock_route", "name": "Route R1 (Agatu reserve to Ochekwu stream)"}}, {"type": "Feature", "geometry": {"type": "LineString", "coordinates": [[8.98, 8.06], [8.93, 7.99], [8.88, 7.99], [8.79, 7.88], [8.76, 7.845]]}, "properties": {"kind": "stock_route", "name": "Route R2 (Guma reserve to Daudu pond)"}}, {"type": "Feature", "geometry": {"type": "LineString", "coordinates": [[9.15, 7.5], [9.11, 7.56], [9.08, 7.64]]}, "properties": {"kind": "stock_route", "name": "Route R3 (Logo reserve to Ugba dam)"}}]}